[{"OBJECT_NAME":"STARLINK-35510","OBJECT_ID":"2025-257T","EPOCH":"2026-03-09T17:29:00.309984","MEAN_MOTION":15.30208609,"ECCENTRICITY":7.038e-5,"INCLINATION":53.1604,"RA_OF_ASC_NODE":216.5401,"ARG_OF_PERICENTER":70.6158,"MEAN_ANOMALY":289.4918,"EPHEMERIS_TYPE":0,"CLASSIFICATION_TYPE":"U","NORAD_CAT_ID":66397,"ELEMENT_SET_NO":999,"REV_AT_EPOCH":1974,"BSTAR":0.0011929486,"MEAN_MOTION_DOT":0.00035149,"MEAN_MOTION_DDOT":0},{"OBJECT_NAME":"COSMOS 2251 DEB","OBJECT_ID":"1993-036BTX","EPOCH":"2026-02-28T17:34:44.973408","MEAN_MOTION":15.25753352,"ECCENTRICITY":0.00216382,"INCLINATION":73.9681,"RA_OF_ASC_NODE":229.3494,"ARG_OF_PERICENTER":13.6287,"MEAN_ANOMALY":346.5492,"EPHEMERIS_TYPE":0,"CLASSIFICATION_TYPE":"U","NORAD_CAT_ID":38487,"ELEMENT_SET_NO":999,"REV_AT_EPOCH":67986,"BSTAR":0.0024802785,"MEAN_MOTION_DOT":0.00064261,"MEAN_MOTION_DDOT":0}]
